STARLINK-32389          
1 61549U 24184T   25293.30809041 -.00000676  00000+0 -10701-4 0  9993
2 61549  53.1599 306.0251 0001480  90.7434 269.3736 15.30187415 57010
STARLINK-32476          
1 61550U 24184U   25293.25544830  .00005810  00000+0  20815-3 0  9990
2 61550  53.1607 306.4044 0001808 105.9598 254.1602 15.30200350 57007
STARLINK-32366          
1 61551U 24184V   25293.26493851 -.00001029  00000+0 -22618-4 0  9992
2 61551  53.1604 306.4640 0001167  82.2190 277.8943 15.30187475 57002
STARLINK-11356 [DTC]    
1 61574U 24187A   25293.19468409 -.00003471  00000+0 -23794-4 0  9992
2 61574  53.1587 268.8679 0002649 155.0050 205.1097 15.69694842 58716
STARLINK-11376 [DTC]    
1 61575U 24187B   25293.18978616 -.00003462  00000+0 -23739-4 0  9997
2 61575  53.1577 268.8366 0001637 101.7261 258.3941 15.69691338 58633
STARLINK-11372 [DTC]    
1 61576U 24187C   25293.18489339 -.00003471  00000+0 -23818-4 0  9995
2 61576  53.1606 268.8039 0001696  91.1872 268.9340 15.69686628 58680
STARLINK-11375 [DTC]    
1 61577U 24187D   25293.17996445 -.00002270  00000+0 -13866-4 0  9994
2 61577  53.1593 268.7706 0001604 120.0112 240.1066 15.69718514 58681
STARLINK-11285 [DTC]    
1 61578U 24187E   25293.23872751 -.00003582  00000+0 -24711-4 0  9993
2 61578  53.1594 268.4236 0001249 115.3888 244.7259 15.69717735 58644
STARLINK-11275 [DTC]    
1 61579U 24187F   25293.23380268 -.00000038  00000+0  45423-5 0  9997
2 61579  53.1580 268.3912 0001311 104.2531 255.8632 15.69732804 58644
STARLINK-11342 [DTC]    
1 61580U 24187G   25293.22891095 -.00002779  00000+0 -18074-4 0  9999
2 61580  53.1594 268.3587 0001023 122.4912 237.6205 15.69728828 58740
STARLINK-11374 [DTC]    
1 61581U 24187H   25293.22411364  .00001557  00000+0  17710-4 0  9994
2 61581  53.1582 269.0607 0001385  76.3115 283.8057 15.69712137 58735
STARLINK-11373 [DTC]    
1 61582U 24187J   25293.21920333  .00000496  00000+0  89534-5 0  9990
2 61582  53.1590 269.0276 0001104  95.6161 264.4983 15.69714067 58682
STARLINK-11368 [DTC]    
1 61583U 24187K   25293.21430901 -.00000809  00000+0 -18217-5 0  9998
2 61583  53.1587 268.9940 0001211  90.6370 269.4787 15.69703046 58638
STARLINK-11370 [DTC]    
1 61584U 24187L   25293.20941287 -.00003808  00000+0 -26603-4 0  9991
2 61584  53.1585 268.9613 0001107 106.2837 253.8303 15.69694886 58687
STARLINK-11361 [DTC]    
1 61585U 24187M   25293.20449619  .00166848  00000+0  13529-2 0  9997
2 61585  53.1565 268.9276 0001643  89.1232 270.9974 15.69738695 58685
STARLINK-11360 [DTC]    
1 61586U 24187N   25293.26326640 -.00000469  00000+0  98800-6 0  9998
2 61586  53.1589 268.5815 0001294  83.1033 277.0132 15.69692373 58745
