[{"OBJECT_NAME":"STARLINK-32389","OBJECT_ID":"2024-184T","EPOCH":"2025-10-20T07:23:39.011424","MEAN_MOTION":15.30187415,"ECCENTRICITY":0.00014809,"INCLINATION":53.1599,"RA_OF_ASC_NODE":306.0251,"ARG_OF_PERICENTER":90.7434,"MEAN_ANOMALY":269.3736,"EPHEMERIS_TYPE":0,"CLASSIFICATION_TYPE":"U","NORAD_CAT_ID":61549,"ELEMENT_SET_NO":999,"REV_AT_EPOCH":5701,"BSTAR":-1.0700667e-5,"MEAN_MOTION_DOT":-6.76e-6,"MEAN_MOTION_DDOT":0},{"OBJECT_NAME":"STARLINK-32476","OBJECT_ID":"2024-184U","EPOCH":"2025-10-20T06:07:50.733120","MEAN_MOTION":15.3020035,"ECCENTRICITY":0.00018089,"INCLINATION":53.1607,"RA_OF_ASC_NODE":306.4044,"ARG_OF_PERICENTER":105.9598,"MEAN_ANOMALY":254.1602,"EPHEMERIS_TYPE":0,"CLASSIFICATION_TYPE":"U","NORAD_CAT_ID":61550,"ELEMENT_SET_NO":999,"REV_AT_EPOCH":5700,"BSTAR":0.00020815431,"MEAN_MOTION_DOT":5.81e-5,"MEAN_MOTION_DDOT":0},{"OBJECT_NAME":"STARLINK-32366","OBJECT_ID":"2024-184V","EPOCH":"2025-10-20T06:21:30.687264","MEAN_MOTION":15.30187475,"ECCENTRICITY":0.00011672,"INCLINATION":53.1604,"RA_OF_ASC_NODE":306.464,"ARG_OF_PERICENTER":82.219,"MEAN_ANOMALY":277.8943,"EPHEMERIS_TYPE":0,"CLASSIFICATION_TYPE":"U","NORAD_CAT_ID":61551,"ELEMENT_SET_NO":999,"REV_AT_EPOCH":5700,"BSTAR":-2.2618221e-5,"MEAN_MOTION_DOT":-1.029e-5,"MEAN_MOTION_DDOT":0},{"OBJECT_NAME":"STARLINK-11356 [DTC]","OBJECT_ID":"2024-187A","EPOCH":"2025-10-20T04:40:20.705376","MEAN_MOTION":15.69694842,"ECCENTRICITY":0.00026499,"INCLINATION":53.1587,"RA_OF_ASC_NODE":268.8679,"ARG_OF_PERICENTER":155.005,"MEAN_ANOMALY":205.1097,"EPHEMERIS_TYPE":0,"CLASSIFICATION_TYPE":"U","NORAD_CAT_ID":61574,"ELEMENT_SET_NO":999,"REV_AT_EPOCH":5871,"BSTAR":-2.3793615e-5,"MEAN_MOTION_DOT":-3.471e-5,"MEAN_MOTION_DDOT":0},{"OBJECT_NAME":"STARLINK-11376 [DTC]","OBJECT_ID":"2024-187B","EPOCH":"2025-10-20T04:33:17.524224","MEAN_MOTION":15.69691338,"ECCENTRICITY":0.00016376,"INCLINATION":53.1577,"RA_OF_ASC_NODE":268.8366,"ARG_OF_PERICENTER":101.7261,"MEAN_ANOMALY":258.3941,"EPHEMERIS_TYPE":0,"CLASSIFICATION_TYPE":"U","NORAD_CAT_ID":61575,"ELEMENT_SET_NO":999,"REV_AT_EPOCH":5863,"BSTAR":-2.3738947e-5,"MEAN_MOTION_DOT":-3.462e-5,"MEAN_MOTION_DDOT":0},{"OBJECT_NAME":"STARLINK-11372 [DTC]","OBJECT_ID":"2024-187C","EPOCH":"2025-10-20T04:26:14.788896","MEAN_MOTION":15.69686628,"ECCENTRICITY":0.00016968,"INCLINATION":53.1606,"RA_OF_ASC_NODE":268.8039,"ARG_OF_PERICENTER":91.1872,"MEAN_ANOMALY":268.934,"EPHEMERIS_TYPE":0,"CLASSIFICATION_TYPE":"U","NORAD_CAT_ID":61576,"ELEMENT_SET_NO":999,"REV_AT_EPOCH":5868,"BSTAR":-2.3818054e-5,"MEAN_MOTION_DOT":-3.471e-5,"MEAN_MOTION_DDOT":0},{"OBJECT_NAME":"STARLINK-11375 [DTC]","OBJECT_ID":"2024-187D","EPOCH":"2025-10-20T04:19:08.928480","MEAN_MOTION":15.69718514,"ECCENTRICITY":0.00016046,"INCLINATION":53.1593,"RA_OF_ASC_NODE":268.7706,"ARG_OF_PERICENTER":120.0112,"MEAN_ANOMALY":240.1066,"EPHEMERIS_TYPE":0,"CLASSIFICATION_TYPE":"U","NORAD_CAT_ID":61577,"ELEMENT_SET_NO":999,"REV_AT_EPOCH":5868,"BSTAR":-1.3866296e-5,"MEAN_MOTION_DOT":-2.27e-5,"MEAN_MOTION_DDOT":0},{"OBJECT_NAME":"STARLINK-11285 [DTC]","OBJECT_ID":"2024-187E","EPOCH":"2025-10-20T05:43:46.056864","MEAN_MOTION":15.69717735,"ECCENTRICITY":0.00012493,"INCLINATION":53.1594,"RA_OF_ASC_NODE":268.4236,"ARG_OF_PERICENTER":115.3888,"MEAN_ANOMALY":244.7259,"EPHEMERIS_TYPE":0,"CLASSIFICATION_TYPE":"U","NORAD_CAT_ID":61578,"ELEMENT_SET_NO":999,"REV_AT_EPOCH":5864,"BSTAR":-2.4710744e-5,"MEAN_MOTION_DOT":-3.582e-5,"MEAN_MOTION_DDOT":0},{"OBJECT_NAME":"STARLINK-11275 [DTC]","OBJECT_ID":"2024-187F","EPOCH":"2025-10-20T05:36:40.551552","MEAN_MOTION":15.69732804,"ECCENTRICITY":0.00013112,"INCLINATION":53.158,"RA_OF_ASC_NODE":268.3912,"ARG_OF_PERICENTER":104.2531,"MEAN_ANOMALY":255.8632,"EPHEMERIS_TYPE":0,"CLASSIFICATION_TYPE":"U","NORAD_CAT_ID":61579,"ELEMENT_SET_NO":999,"REV_AT_EPOCH":5864,"BSTAR":4.542303e-6,"MEAN_MOTION_DOT":-3.8e-7,"MEAN_MOTION_DDOT":0},{"OBJECT_NAME":"STARLINK-11342 [DTC]","OBJECT_ID":"2024-187G","EPOCH":"2025-10-20T05:29:37.906080","MEAN_MOTION":15.69728828,"ECCENTRICITY":0.00010237,"INCLINATION":53.1594,"RA_OF_ASC_NODE":268.3587,"ARG_OF_PERICENTER":122.4912,"MEAN_ANOMALY":237.6205,"EPHEMERIS_TYPE":0,"CLASSIFICATION_TYPE":"U","NORAD_CAT_ID":61580,"ELEMENT_SET_NO":999,"REV_AT_EPOCH":5874,"BSTAR":-1.8073581e-5,"MEAN_MOTION_DOT":-2.779e-5,"MEAN_MOTION_DDOT":0},{"OBJECT_NAME":"STARLINK-11374 [DTC]","OBJECT_ID":"2024-187H","EPOCH":"2025-10-20T05:22:43.418496","MEAN_MOTION":15.69712137,"ECCENTRICITY":0.00013854,"INCLINATION":53.1582,"RA_OF_ASC_NODE":269.0607,"ARG_OF_PERICENTER":76.3115,"MEAN_ANOMALY":283.8057,"EPHEMERIS_TYPE":0,"CLASSIFICATION_TYPE":"U","NORAD_CAT_ID":61581,"ELEMENT_SET_NO":999,"REV_AT_EPOCH":5873,"BSTAR":1.7709889e-5,"MEAN_MOTION_DOT":1.557e-5,"MEAN_MOTION_DDOT":0},{"OBJECT_NAME":"STARLINK-11373 [DTC]","OBJECT_ID":"2024-187J","EPOCH":"2025-10-20T05:15:39.167712","MEAN_MOTION":15.69714067,"ECCENTRICITY":0.00011049,"INCLINATION":53.159,"RA_OF_ASC_NODE":269.0276,"ARG_OF_PERICENTER":95.6161,"MEAN_ANOMALY":264.4983,"EPHEMERIS_TYPE":0,"CLASSIFICATION_TYPE":"U","NORAD_CAT_ID":61582,"ELEMENT_SET_NO":999,"REV_AT_EPOCH":5868,"BSTAR":8.953392e-6,"MEAN_MOTION_DOT":4.96e-6,"MEAN_MOTION_DDOT":0},{"OBJECT_NAME":"STARLINK-11368 [DTC]","OBJECT_ID":"2024-187K","EPOCH":"2025-10-20T05:08:36.298464","MEAN_MOTION":15.69703046,"ECCENTRICITY":0.0001211,"INCLINATION":53.1587,"RA_OF_ASC_NODE":268.994,"ARG_OF_PERICENTER":90.637,"MEAN_ANOMALY":269.4787,"EPHEMERIS_TYPE":0,"CLASSIFICATION_TYPE":"U","NORAD_CAT_ID":61583,"ELEMENT_SET_NO":999,"REV_AT_EPOCH":5863,"BSTAR":-1.821684e-6,"MEAN_MOTION_DOT":-8.09e-6,"MEAN_MOTION_DDOT":0},{"OBJECT_NAME":"STARLINK-11370 [DTC]","OBJECT_ID":"2024-187L","EPOCH":"2025-10-20T05:01:33.271968","MEAN_MOTION":15.69694886,"ECCENTRICITY":0.00011076,"INCLINATION":53.1585,"RA_OF_ASC_NODE":268.9613,"ARG_OF_PERICENTER":106.2837,"MEAN_ANOMALY":253.8303,"EPHEMERIS_TYPE":0,"CLASSIFICATION_TYPE":"U","NORAD_CAT_ID":61584,"ELEMENT_SET_NO":999,"REV_AT_EPOCH":5868,"BSTAR":-2.660349e-5,"MEAN_MOTION_DOT":-3.808e-5,"MEAN_MOTION_DDOT":0},{"OBJECT_NAME":"STARLINK-11361 [DTC]","OBJECT_ID":"2024-187M","EPOCH":"2025-10-20T04:54:28.470816","MEAN_MOTION":15.69738695,"ECCENTRICITY":0.00016438,"INCLINATION":53.1565,"RA_OF_ASC_NODE":268.9276,"ARG_OF_PERICENTER":89.1232,"MEAN_ANOMALY":270.9974,"EPHEMERIS_TYPE":0,"CLASSIFICATION_TYPE":"U","NORAD_CAT_ID":61585,"ELEMENT_SET_NO":999,"REV_AT_EPOCH":5868,"BSTAR":0.0013528912,"MEAN_MOTION_DOT":0.00166848,"MEAN_MOTION_DDOT":0},{"OBJECT_NAME":"STARLINK-11360 [DTC]","OBJECT_ID":"2024-187N","EPOCH":"2025-10-20T06:19:06.216960","MEAN_MOTION":15.69692373,"ECCENTRICITY":0.00012947,"INCLINATION":53.1589,"RA_OF_ASC_NODE":268.5815,"ARG_OF_PERICENTER":83.1033,"MEAN_ANOMALY":277.0132,"EPHEMERIS_TYPE":0,"CLASSIFICATION_TYPE":"U","NORAD_CAT_ID":61586,"ELEMENT_SET_NO":999,"REV_AT_EPOCH":5874,"BSTAR":9.88001e-7,"MEAN_MOTION_DOT":-4.69e-6,"MEAN_MOTION_DDOT":0}]
